{
  "type": "FeatureCollection",
  "features": [
    {
      "type": "Feature",
      "properties": {
        "norad_id": 66659,
        "name": "JACK K",
        "group": "last-30-days",
        "lat": 55.69213348322072,
        "lon": -105.90012472505411,
        "alt_km": 586.1996601164092,
        "timestamp": "2025-12-04T05:42:42.159983+00:00",
        "meta_object_name": "JACK K",
        "meta_object_id": "2025-274K",
        "meta_epoch": "2025-12-03T18:11:53.608704",
        "meta_mean_motion": 14.92722518,
        "meta_eccentricity": 0.00124169,
        "meta_inclination": 97.7384,
        "meta_ra_of_asc_node": 265.1232,
        "meta_arg_of_pericenter": 314.3342,
        "meta_mean_anomaly": 45.6859,
        "meta_ephemeris_type": 0,
        "meta_classification_type": "U",
        "meta_norad_cat_id": 66659,
        "meta_element_set_no": 999,
        "meta_rev_at_epoch": 106,
        "meta_bstar": 0.00050377954,
        "meta_mean_motion_dot": 5.152e-05,
        "meta_mean_motion_ddot": 0,
        "tle_line1": "1 66659U 25274K   25337.75825936  .00005152  00000+0  50378-3 0  9995",
        "tle_line2": "2 66659  97.7384 265.1232 0012416 314.3342  45.6859 14.92722518  1062"
      },
      "geometry": {
        "type": "Point",
        "coordinates": [
          -105.90012472505411,
          55.69213348322072
        ]
      }
    },
    {
      "type": "Feature",
      "properties": {
        "norad_id": 66660,
        "name": "K-HERO",
        "group": "last-30-days",
        "lat": 59.652183143569424,
        "lon": -107.83379407805299,
        "alt_km": 585.899661772236,
        "timestamp": "2025-12-04T05:42:42.159995+00:00",
        "meta_object_name": "K-HERO",
        "meta_object_id": "2025-274L",
        "meta_epoch": "2025-12-03T18:10:52.204224",
        "meta_mean_motion": 14.92877356,
        "meta_eccentricity": 0.0013061,
        "meta_inclination": 97.7388,
        "meta_ra_of_asc_node": 265.1245,
        "meta_arg_of_pericenter": 314.8078,
        "meta_mean_anomaly": 45.2079,
        "meta_ephemeris_type": 0,
        "meta_classification_type": "U",
        "meta_norad_cat_id": 66660,
        "meta_element_set_no": 999,
        "meta_rev_at_epoch": 106,
        "meta_bstar": 0.00063723587,
        "meta_mean_motion_dot": 6.56e-05,
        "meta_mean_motion_ddot": 0,
        "tle_line1": "1 66660U 25274L   25337.75754866  .00006560  00000+0  63724-3 0  9993",
        "tle_line2": "2 66660  97.7388 265.1245 0013061 314.8078  45.2079 14.92877356  1061"
      },
      "geometry": {
        "type": "Point",
        "coordinates": [
          -107.83379407805299,
          59.652183143569424
        ]
      }
    },
    {
      "type": "Feature",
      "properties": {
        "norad_id": 66661,
        "name": "SNUGLITE-III",
        "group": "last-30-days",
        "lat": 63.6657114027804,
        "lon": -110.34678010226256,
        "alt_km": 585.7333684870582,
        "timestamp": "2025-12-04T05:42:42.160006+00:00",
        "meta_object_name": "SNUGLITE-III",
        "meta_object_id": "2025-274M",
        "meta_epoch": "2025-12-03T18:09:48.994848",
        "meta_mean_motion": 14.93022901,
        "meta_eccentricity": 0.00137618,
        "meta_inclination": 97.7384,
        "meta_ra_of_asc_node": 265.1254,
        "meta_arg_of_pericenter": 315.3921,
        "meta_mean_anomaly": 44.619,
        "meta_ephemeris_type": 0,
        "meta_classification_type": "U",
        "meta_norad_cat_id": 66661,
        "meta_element_set_no": 999,
        "meta_rev_at_epoch": 106,
        "meta_bstar": 0.00042363869,
        "meta_mean_motion_dot": 4.358e-05,
        "meta_mean_motion_ddot": 0,
        "tle_line1": "1 66661U 25274M   25337.75681707  .00004358  00000+0  42364-3 0  9997",
        "tle_line2": "2 66661  97.7384 265.1254 0013761 315.3921  44.6190 14.93022901  1064"
      },
      "geometry": {
        "type": "Point",
        "coordinates": [
          -110.34678010226256,
          63.6657114027804
        ]
      }
    },
    {
      "type": "Feature",
      "properties": {
        "norad_id": 66662,
        "name": "2025-274N",
        "group": "last-30-days",
        "lat": 65.40291537510532,
        "lon": -111.68135352705787,
        "alt_km": 585.8651332282752,
        "timestamp": "2025-12-04T05:42:42.160016+00:00",
        "meta_object_name": "2025-274N",
        "meta_object_id": "2025-274N",
        "meta_epoch": "2025-12-03T18:09:21.232800",
        "meta_mean_motion": 14.93083029,
        "meta_eccentricity": 0.00141444,
        "meta_inclination": 97.7385,
        "meta_ra_of_asc_node": 265.1256,
        "meta_arg_of_pericenter": 314.7564,
        "meta_mean_anomaly": 45.2503,
        "meta_ephemeris_type": 0,
        "meta_classification_type": "U",
        "meta_norad_cat_id": 66662,
        "meta_element_set_no": 999,
        "meta_rev_at_epoch": 106,
        "meta_bstar": 0.00031726993,
        "meta_mean_motion_dot": 3.254e-05,
        "meta_mean_motion_ddot": 0,
        "tle_line1": "1 66662U 25274N   25337.75649575  .00003254  00000+0  31727-3 0  9990",
        "tle_line2": "2 66662  97.7385 265.1256 0014144 314.7564  45.2503 14.93083029  1063"
      },
      "geometry": {
        "type": "Point",
        "coordinates": [
          -111.68135352705787,
          65.40291537510532
        ]
      }
    },
    {
      "type": "Feature",
      "properties": {
        "norad_id": 66663,
        "name": "KSLV-II R/B",
        "group": "last-30-days",
        "lat": -2.9038792372140656,
        "lon": 85.26645672456449,
        "alt_km": 609.8851017208217,
        "timestamp": "2025-12-04T05:42:42.160026+00:00",
        "meta_object_name": "KSLV-II R/B",
        "meta_object_id": "2025-274P",
        "meta_epoch": "2025-12-03T17:40:07.524480",
        "meta_mean_motion": 14.9720213,
        "meta_eccentricity": 0.00461454,
        "meta_inclination": 97.7399,
        "meta_ra_of_asc_node": 265.1649,
        "meta_arg_of_pericenter": 348.9678,
        "meta_mean_anomaly": 11.0527,
        "meta_ephemeris_type": 0,
        "meta_classification_type": "U",
        "meta_norad_cat_id": 66663,
        "meta_element_set_no": 999,
        "meta_rev_at_epoch": 106,
        "meta_bstar": -0.00011329547,
        "meta_mean_motion_dot": -1.401e-05,
        "meta_mean_motion_ddot": 0,
        "tle_line1": "1 66663U 25274P   25337.73619820 -.00001401  00000+0 -11330-3 0  9991",
        "tle_line2": "2 66663  97.7399 265.1649 0046145 348.9678  11.0527 14.97202130  1063"
      },
      "geometry": {
        "type": "Point",
        "coordinates": [
          85.26645672456449,
          -2.9038792372140656
        ]
      }
    },
    {
      "type": "Feature",
      "properties": {
        "norad_id": 66664,
        "name": "SOYUZ-MS 28",
        "group": "last-30-days",
        "lat": 51.27888883089774,
        "lon": -76.61987963098781,
        "alt_km": 412.44516971145003,
        "timestamp": "2025-12-04T05:42:42.160036+00:00",
        "meta_object_name": "SOYUZ-MS 28",
        "meta_object_id": "2025-275A",
        "meta_epoch": "2025-12-03T21:33:39.277728",
        "meta_mean_motion": 15.4928465,
        "meta_eccentricity": 0.00035922,
        "meta_inclination": 51.6303,
        "meta_ra_of_asc_node": 186.2514,
        "meta_arg_of_pericenter": 201.3576,
        "meta_mean_anomaly": 158.7263,
        "meta_ephemeris_type": 0,
        "meta_classification_type": "U",
        "meta_norad_cat_id": 66664,
        "meta_element_set_no": 999,
        "meta_rev_at_epoch": 107,
        "meta_bstar": 0.00025253496,
        "meta_mean_motion_dot": 0.00013627,
        "meta_mean_motion_ddot": 0,
        "tle_line1": "1 66664U 25275A   25337.89837127  .00013627  00000+0  25253-3 0  9992",
        "tle_line2": "2 66664  51.6303 186.2514 0003592 201.3576 158.7263 15.49284650  1072"
      },
      "geometry": {
        "type": "Point",
        "coordinates": [
          -76.61987963098781,
          51.27888883089774
        ]
      }
    },
    {
      "type": "Feature",
      "properties": {
        "norad_id": 66820,
        "name": "KOMPSAT-7",
        "group": "last-30-days",
        "lat": -49.87769765039482,
        "lon": 95.12464672514936,
        "alt_km": 572.5458170383117,
        "timestamp": "2025-12-04T05:42:42.160049+00:00",
        "meta_object_name": "KOMPSAT-7",
        "meta_object_id": "2025-279A",
        "meta_epoch": "2025-12-01T20:35:16.060992",
        "meta_mean_motion": 14.98310631,
        "meta_eccentricity": 0.00097501,
        "meta_inclination": 97.6394,
        "meta_ra_of_asc_node": 281.9587,
        "meta_arg_of_pericenter": 255.3935,
        "meta_mean_anomaly": 104.6207,
        "meta_ephemeris_type": 0,
        "meta_classification_type": "U",
        "meta_norad_cat_id": 66820,
        "meta_element_set_no": 999,
        "meta_rev_at_epoch": 2,
        "meta_bstar": 8.4407298e-05,
        "meta_mean_motion_dot": 9.47e-06,
        "meta_mean_motion_ddot": 0,
        "tle_line1": "1 66820U 25279A   25335.85782478  .00000947  00000+0  84407-4 0  9990",
        "tle_line2": "2 66820  97.6394 281.9587 0009750 255.3935 104.6207 14.98310631    23"
      },
      "geometry": {
        "type": "Point",
        "coordinates": [
          95.12464672514936,
          -49.87769765039482
        ]
      }
    }
  ]
}